SCD 1                   
1 22490U 93009B   26196.88619693  .00000289  00000+0  28323-4 0  9992
2 22490  24.9705  30.3746 0042079  81.8366  48.8309 14.46128763765274
TECHSAT 1B (GO-32)      
1 25397U 98043D   26196.86396539  .00000002  00000+0  21072-4 0  9990
2 25397  99.0086 190.3481 0002199 113.5643 246.5766 14.24433417455418
SCD 2                   
1 25504U 98060A   26196.26197317  .00000274  00000+0  25831-4 0  9994
2 25504  24.9945 259.0250 0016971  60.2756 348.6331 14.45534804464396
DLR-TUBSAT              
1 25757U 99029B   26196.88282515 -.00000002  00000+0  11467-4 0  9993
2 25757  98.6711 193.3331 0012976 262.4183  97.5537 14.52433324437410
TERRA                   
1 25994U 99068A   26196.85356950  .00000177  00000+0  44919-4 0  9991
2 25994  97.9441 245.2610 0003443 121.3032 327.0497 14.61123975413796
MAROC-TUBSAT            
1 27004U 01056D   26196.76191661 -.00000039  00000+0  87616-5 0  9991
2 27004  99.8098  14.1621 0020593  70.6859 307.8357 13.70263570230100
AQUA                    
1 27424U 02022A   26195.50499725  .00000358  00000+0  80864-4 0  9994
2 27424  98.4295 165.3370 0000927 111.8770   0.7592 14.62196472287266
SHIYAN-1 (SY-1)         
1 28220U 04012A   26196.75233019  .00007588  00000+0  22992-3 0  9999
2 28220  97.8688 276.6904 0004097 271.8328  88.2444 15.34461774215478
AURA                    
1 28376U 04026A   26196.81213818  .00000357  00000+0  82006-4 0  9998
2 28376  98.3430 153.5056 0001330  93.4811 266.6541 14.61368368170399
IRS-P5 (CARTOSAT-1)     
1 28649U 05017A   26196.53161993  .00000736  00000+0  79490-4 0  9991
2 28649  97.5307 218.3103 0001377  53.8816 306.2530 14.91117745148045
SINAH 1                 
1 28893U 05043D   26196.75648684  .00000128  00000+0  33742-4 0  9997
2 28893  98.2894 331.2521 0014438 181.7521 178.3633 14.64175700104702
RESURS-DK 1             
1 29228U 06021A   26196.52482071  .00000919  00000+0  57571-4 0  9992
2 29228  69.9307 266.1925 0007128 270.7395  89.2954 15.13319759106863
ARIRANG-2 (KOMPSAT-2)   
1 29268U 06031A   26196.85754723  .00000465  00000+0  95789-4 0  9998
2 29268  97.8306  19.9177 0014208 348.7309 117.9157 14.64677116 65673
LAPAN-TUBSAT            
1 29709U 07001A   26196.87274455 -.00000121  00000+0 -71743-5 0  9993
2 29709  98.1346 196.7449 0013556  91.6745 268.6022 14.85974866 55411
HAIYANG-1B              
1 31113U 07010A   26196.81201951  .00000027  00000+0  26026-4 0  9996
2 31113  98.3515 177.5497 0014647 114.0759 246.1959 14.31033432  4735
COSMO-SKYMED 1          
1 31598U 07023A   26196.80686279  .00001445  00000+0  13007-3 0  9995
2 31598  97.8846  28.9049 0001477 103.0429 257.0957 14.97221320 34070
TERRASAR-X              
1 31698U 07026A   26188.47915537  .00000240  00000+0  14624-4 0  9994
2 31698  97.4461 195.8972 0001878  86.9540 273.1909 15.19153986 56300
WORLDVIEW-1 (WV-1)      
1 32060U 07041A   26196.78014605  .00003222  00000+0  13372-3 0  9995
2 32060  97.3908 316.1226 0001589 203.6523 156.4641 15.24562980 47239
YAOGAN-3                
1 32289U 07055A   26196.85379987  .00001332  00000+0  14076-3 0  9990
2 32289  97.8145 226.4482 0001646  77.9421 282.1981 14.90885858 10148
COSMO-SKYMED 2          
1 32376U 07059A   26196.85302207  .00000150  00000+0  25361-4 0  9999
2 32376  97.8894  20.0362 0001458  94.0634 266.0745 14.82150815  6253
RADARSAT-2              
1 32382U 07061A   26196.86581053 -.00000199  00000+0 -60311-4 0  9997
2 32382  98.5777 203.3886 0001308  83.8655 276.2676 14.29982551970053
CARTOSAT-2A             
1 32783U 08021A   26196.86229560 -.00000114  00000+0 -85200-5 0  9993
2 32783  97.7620 244.5899 0012493  25.0888 335.0929 14.79275783983045
HUANJING 1A (HJ-1A)     
1 33320U 08041A   26196.88980061  .00000058  00000+0  13068-4 0  9992
2 33320  97.6692 181.6212 0020271  47.4684 312.8238 14.84047981962660
HUANJING 1B (HJ-1B)     
1 33321U 08041B   26196.87206003  .00000901  00000+0  11479-3 0  9999
2 33321  97.6529 184.6885 0037993  89.1403 271.4164 14.83367789962668
GEOEYE 1                
1 33331U 08042A   26196.77612394  .00000188  00000+0  44339-4 0  9993
2 33331  98.1327 270.3652 0003906 344.7937  15.3148 14.64649713954336
THEOS                   
1 33396U 08049A   26196.85570310  .00000065  00000+0  50244-4 0  9997
2 33396  98.5559 253.2060 0001088  87.2746 272.8556 14.20136619922030
COSMO-SKYMED 3          
1 33412U 08054A   26196.89301258  .00002566  00000+0  17481-3 0  9992
2 33412  97.8244  55.9385 0015817 164.3213 195.8507 15.07118033961264
YAOGAN-4                
1 33446U 08061A   26196.77081775  .00000451  00000+0  61759-4 0  9992
2 33446  97.9304 130.0710 0013761 343.7681  16.3090 14.83251950949904
GOSAT (IBUKI)           
1 33492U 09002A   26196.84305594  .00000286  00000+0  58937-4 0  9995
2 33492  98.0914 307.5683 0001144  88.4710 271.6626 14.67540076935663
DEIMOS-1                
1 35681U 09041A   26196.87691203  .00000594  00000+0  94803-4 0  9992
2 35681  97.7428 352.8654 0002792  92.3208 267.8321 14.75265885911112
